STARLINK-32352          
1 61847U 24202C   26068.46326900 -.00005288  00000+0 -18270-3 0  9993
2 61847  42.9951 227.9627 0000746 262.7330  97.3437 15.27594260 75436
FLOCK 4G-5              
1 62663U 25009BG  26068.45638436  .00011278  00000+0  40688-3 0  9997
2 62663  97.4058 151.2478 0002094 314.5072  45.5996 15.28679529 63699
